ALOS (DAICHI)           
1 28931U 06002A   25351.73419158  .00001110  00000+0  19545-3 0  9994
2 28931  98.1098 303.1864 0001361 113.5739 246.5610 14.69501788 61443
H-2A R/B                
1 28932U 06002B   25355.37357290  .00007811  00000+0  41001-3 0  9993
2 28932  98.2325 130.8285 0054834 147.0977 213.3686 15.14730511 82570
RESURS-DK 1             
1 29228U 06021A   25355.56195782  .00002006  00000+0  12205-3 0  9995
2 29228  69.9338  79.0386 0006864 251.3709 108.6712 15.12205310 75712
CZ-4B R/B               
1 29507U 06046C   25355.54829215  .00003822  00000+0  20004-3 0  9998
2 29507  97.5717  35.6628 0034023 175.7561 184.3966 15.15951116 48201
CZ-2C R/B               
1 31114U 07010B   25355.59573121  .00000105  00000+0  67045-4 0  9992
2 31114  98.3976 107.8009 0059489 160.2757 200.0740 14.20213140968635
COSMO-SKYMED 1          
1 31598U 07023A   25355.55145667  .00002913  00000+0  26617-3 0  9996
2 31598  97.8838 181.0087 0001526  81.8232 278.3162 14.95829297  3226
COSMOS 2428             
1 31792U 07029A   25355.44649512  .00000170  00000+0  11709-3 0  9993
2 31792  70.9365   7.5989 0004165  11.2158 348.9055 14.12893036953048
SL-16 R/B               
1 31793U 07029B   25355.38817089  .00000238  00000+0  14789-3 0  9999
2 31793  70.9758 336.9774 0001903 262.4859 259.4601 14.14816722954291
KORONAS-FOTON           
1 33504U 09003A   25355.45411842  .00008063  00000+0  19179-3 0  9992
2 33504  82.4306 357.0742 0013403  81.3597 278.9168 15.41358600933685
CZ-2C R/B               
1 37731U 11030B   25355.38781991  .00001092  00000+0  14501-3 0  9997
2 37731  97.8427 309.3036 0051393 244.6425 231.7549 14.80926794778500
H-2A R/B                
1 38341U 12025E   25355.47764037  .00002110  00000+0  19812-3 0  9994
2 38341  98.4609 311.3818 0044346 207.1579 152.7319 14.94495494736539
SHIJIAN-16 (SJ-16)      
1 39358U 13057A   25355.58760561  .00001314  00000+0  13213-3 0  9993
2 39358  74.9730 332.9125 0017903 299.1663  60.7733 14.92007225659852
